C/2019 M3 (ATLAS),e,99.6589,155.0588,87.9356,5071,0.0000027,0.99952190,0.0000,12/31.4761/2018,2000,g 12.2,4.0
# From MPEC 2023-JA2
C/2019 M4 (TESS),h,09/09.4023/2019,65.6931,52.6412,260.3379,1.000221,9.191035,2000,5.0,4.0
# From MPEC 2023-C45
C/2019 N1 (ATLAS),e,82.5402,13.5080,193.3421,959.1920,0.0000332,0.99822456,0.0000,11/30.4860/2020,2000,g  7.5,4.0
# From MPEC 2023-CD8
A/2019 N2,e,89.3192,276.2264,347.0591,1113,0.0000265,0.99825751,0.0000,08/22.4117/2019,2000,g 12.5,2.0
# From MPEC 2022-A21
C/2019 NJ3 (Lemmon),h,10/22.1768/2020,99.3307,142.4927,246.8697,1.001378,4.362918,2000,9.0,4.0
# From MPC185656
C/2019 O2 (PANSTARRS),e,93.2979,48.2634,129.5727,58.77184,0.0021875,0.83528210,1.8790,08/12.0/2025,2000,g  5.0,4.0
# From MPC182878
C/2019 O3 (Palomar),h,03/08.2843/2021,89.7947,300.4782,60.0970,1.002575,8.820668,2000,3.5,4.0
# From MPEC 2021-P47
A/2019 O4,e,114.9983,354.9257,61.8193,33.22301,0.0051469,0.89037813,10.3394,08/12.0/2025,2000,g 15.5,2.0
# From MPEC 2024-EF7
C/2019 Q1 (Lemmon),h,07/22.2625/2020,155.7200,42.4682,56.2541,1.002440,5.002366,2000,8.5,4.0
# From MPC117072
A/2019 Q2,e,158.9672,188.1325,176.5130,58.81290,0.0021852,0.97856860,0.0000,07/23.7703/2019,2000,g 18.0,2.0
# From MPC117072
P/2019 S2 (PANSTARRS),e,10.4636,93.1798,216.9188,4.747550,0.0952796,0.20467209,225.7275,08/12.0/2025,2000,g 13.5,4.0
# From MPEC 2022-CN4
P/2019 S3 (PANSTARRS),e,8.6942,150.1402,213.0986,3.414249,0.1562289,0.47072516,339.8194,08/12.0/2025,2000,g 18.3,4.0
# From MPEC 2021-S45
C/2019 S4 (Lemmon),e,92.0934,63.1553,71.3699,249.5276,0.0002500,0.98621864,0.0000,04/09.4751/2020,2000,g 11.0,4.0
# From MPEC 2023-N01
A/2019 T1,e,120.8168,6.9281,90.9759,38.74348,0.0040870,0.88967509,6.8256,08/12.0/2025,2000,g 13.0,2.0
# From MPEC 2023-R20
C/2019 T2 (Lemmon),e,111.3659,155.6541,239.3832,3302,0.0000052,0.99919962,0.0000,04/22.4866/2021,2000,g  9.0,4.0
# From MPEC 2023-UR6
C/2019 T3 (ATLAS),e,121.8773,139.5449,112.4907,4789,0.0000030,0.99875672,0.0000,03/04.7730/2021,2000,g  6.8,4.0
# From MPC182878
C/2019 T4 (ATLAS),e,53.6245,199.8981,351.1076,880.0844,0.0000378,0.99518538,0.0000,06/08.6685/2022,2000,g  5.0,4.0
# From MPEC 2021-P47
P/2019 T5 (ATLAS),e,33.4919,247.6130,189.6275,8.008186,0.0434913,0.80976634,95.7022,08/12.0/2025,2000,g 15.0,4.0
# From MPEC 2021-P47
P/2019 T6 (PANSTARRS),e,18.6983,71.2484,329.0612,5.443073,0.0776136,0.62240524,163.2322,08/12.0/2025,2000,g 15.5,4.0
# From MPC118096
P/2019 U4 (PANSTARRS),e,11.6954,200.0001,181.0865,3.518669,0.1493263,0.47572782,321.2449,08/12.0/2025,2000,g 19.0,4.0
# From MPC185656
C/2019 U5 (PANSTARRS),h,03/29.4131/2023,113.5128,2.6103,181.4476,1.000120,3.624294,2000,4.5,4.0
# From MPEC 2022-H04
C/2019 U6 (Lemmon),e,60.9895,235.7444,329.4255,302.7775,0.0001871,0.99700738,0.0000,06/18.3306/2020,2000,g 10.0,4.0
# From MPEC 2022-N37
C/2019 V1 (Borisov),e,61.9484,83.1481,51.1954,2735,0.0000069,0.99886920,0.0000,07/17.6485/2020,2000,g 11.0,4.0
# From MPEC 2022-L66
P/2019 V2 (Groeller),e,11.8070,189.1343,335.6335,7.494725,0.0480364,0.33192546,84.5284,08/12.0/2025,2000,g 10.0,4.0
# From MPEC 2023-A50
P/2019 W1 (PANSTARRS),e,23.4660,35.3598,18.8981,4.548466,0.1016030,0.26718409,232.0432,08/12.0/2025,2000,g 12.9,4.0
# From MPEC 2021-P47
P/2019 X1 (Pruyne),e,10.2452,43.6763,37.0004,6.179714,0.0641581,0.30381004,141.8015,08/12.0/2025,2000,g 10.4,4.0
# From MPEC 2020-C98
P/2019 X2 (Pan-STARRS),e,15.8946,250.8299,213.5219,3.633931,0.1422784,0.50049050,294.5109,08/12.0/2025,2000,g 18.0,4.0
# From MPC119999
C/2019 Y1 (ATLAS),e,73.2691,31.4704,57.9168,88.24628,0.0011889,0.99063641,0.0000,03/17.2541/2020,2000,g 13.7,4.0
# From MPEC 2024-A43
C/2019 Y4 (ATLAS),e,44.9230,120.7963,177.4068,328.6275,0.0001654,0.99921706,0.0000,05/29.5639/2020,2000,g 11.8,6.0
# From MPEC 2020-L06
C/2019 Y4-A (ATLAS),h,05/29.6197/2020,45.3572,121.1644,177.2388,1.001360,0.255449,2000,11.6,6.0
# From MPEC 2025-CE3
C/2019 Y4-B (ATLAS),e,45.0042,120.8596,177.3658,1326,0.0000204,0.99980621,0.0000,05/29.5730/2020,2000,g 12.1,6.0
# From MPEC 2020-L06
C/2019 Y4-C (ATLAS),h,05/29.5739/2020,45.1411,120.8917,177.2715,1.002088,0.256520,2000,12.7,6.0
# From MPEC 2020-L06
C/2019 Y4-D (ATLAS),e,45.1945,121.2528,177.4149,67.22701,0.0017881,0.99619430,0.0000,05/29.6551/2020,2000,g 12.5,6.0
# From MPEC 2023-A50
C/2019 Y5 (PANSTARRS),e,82.7760,51.7691,303.6698,685.2278,0.0000549,0.99279856,0.0000,08/16.4890/2019,2000,g 11.0,4.0
# From MPEC 2023-A50
A/2020 A1,e,149.0315,119.0577,302.4007,25.46083,0.0076718,0.93432395,15.9720,08/12.0/2025,2000,g 18.0,2.0
# From MPEC 2022-YN2
C/2020 A2 (Iwamoto),e,120.5013,286.1851,68.0138,951.7554,0.0000336,0.99897510,0.0000,01/07.0087/2020,2000,g 13.5,4.0
# From MPEC 2023-A50
C/2020 A3 (ATLAS),e,146.6192,120.7978,268.2308,4618,0.0000031,0.99875430,0.0000,06/26.7208/2019,2000,g  8.0,4.0
# From MPEC 2022-P91
P/2020 A4 (PANSTARRS-Lemmon),e,25.0036,312.2766,144.9133,8.203383,0.0419483,0.65447143,87.5657,08/12.0/2025,2000,g 15.0,4.0
# From MPEC 2020-N08
A/2020 B1,e,18.5418,309.7957,154.8896,52.12161,0.0026193,0.96662889,5.3807,08/12.0/2025,2000,g 21.0,2.0
# From MPEC 2020-HN5
C/2020 B2 (Lemmon),e,55.7556,354.1696,143.6328,67.91947,0.0017608,0.95942327,3.5633,08/12.0/2025,2000,g 10.0,4.0
# From MPEC 2022-N37
C/2020 B3 (Rankin),e,20.7068,185.7393,324.9364,1062,0.0000285,0.99686653,0.0000,10/20.8706/2019,2000,g 13.0,4.0
# From MPEC 2023-KD6
P/2020 B4 (Sheppard),e,11.6028,185.9463,342.0579,7.973714,0.0437737,0.19294294,59.6000,08/12.0/2025,2000,g 10.5,4.0
# From MPEC 2025-OF9
C/2020 F2 (ATLAS),h,07/12.4094/2022,163.5897,250.3003,48.2337,1.002431,8.813474,2000,4.5,4.0
# From MPEC 2021-O56
C/2020 F3 (NEOWISE),e,129.1080,61.0737,37.3430,403.7719,0.0001215,0.99927351,0.0000,07/05.0045/2020,2000,g  7.5,5.2
# From MPEC 2024-UQ8
C/2020 F5 (MASTER),e,52.2342,350.5455,310.6109,163.8684,0.0004699,0.97360059,0.0000,03/16.1210/2021,2000,g  6.5,3.2
# From MPEC 2020-L06
C/2020 F6 (PANSTARRS),e,174.5843,207.8355,344.3240,339.7212,0.0001574,0.98970328,0.0000,04/10.2287/2020,2000,g 14.5,2.8
# From MPEC 2024-A43
C/2020 F7 (Lemmon),e,93.9847,321.8201,227.9867,573.2503,0.0000718,0.99069316,0.0000,11/13.9013/2021,2000,g  7.0,4.0
# From MPEC 2023-J29
C/2020 F8 (SWAN),h,05/25.7393/2020,110.5569,259.8033,68.1159,1.000061,0.432950,2000,10.0,4.0
# From MPEC 2020-L06
P/2020 G1 (Pimentel),e,18.5066,240.0969,207.6513,3.606401,0.1439107,0.86082071,283.6871,08/12.0/2025,2000,g 17.0,4.0
# From MPEC 2022-YB4
C/2020 H2 (Pruyne),e,124.7756,277.6715,26.5819,176.5134,0.0004203,0.99530670,0.0000,04/26.8020/2020,2000,g 14.0,3.2
# From MPEC 2020-HM1
C/2020 H3 (Wierzchos),p,06/05.7162/2020,62.5292,30.4456,2.300288,270.6227,2000,13.5,4.0
# From MPEC 2020-L06
C/2020 H4 (Leonard),e,84.4948,307.4463,117.5827,47.85211,0.0029775,0.98061125,0.0000,08/29.1892/2020,2000,g 15.0,3.2
# From MPC184409
C/2020 H5 (Robinson),e,70.2266,210.6131,326.2639,6111,0.0000021,0.99847240,0.0000,12/09.9595/2020,2000,g  5.0,4.0
# From MPEC 2024-JU4
C/2020 H6 (ATLAS),e,79.9903,213.6893,20.1884,1936,0.0000116,0.99757375,0.0000,09/29.5291/2021,2000,g  8.0,3.2
# From MPEC 2020-KB7
C/2020 H7 (Lemmon),e,135.9235,323.5194,82.6780,1405,0.0000187,0.99685380,0.0000,06/02.9510/2020,2000,g 11.0,4.0
# From MPEC 2021-N06
C/2020 H8 (PANSTARRS),e,99.7022,68.4375,128.8122,589.3369,0.0000689,0.99208831,0.0000,06/04.8149/2020,2000,g 10.5,4.0
# From MPEC 2022-ED3
A/2020 H9,e,137.8734,213.1134,312.6082,339.9868,0.0001572,0.99246588,0.0000,12/21.7584/2019,2000,g 18.0,2.0
# From MPEC 2023-HN7
C/2020 H11 (PANSTARRS-Lemmon),e,151.3723,303.0575,91.3618,19224,0.0000004,0.99960358,0.0000,09/12.4008/2020,2000,g  8.5,4.0
# From MPEC 2023-KD6
C/2020 J1 (SONEAR),e,142.3075,226.5832,341.5708,8320,0.0000013,0.99959800,0.0000,04/17.9827/2021,2000,g  8.5,3.2
# From MPC184409
C/2020 K1 (PANSTARRS),e,89.6707,94.3670,213.9696,2290,0.0000090,0.99865767,0.0000,05/08.7076/2023,2000,g  5.5,4.0
# From MPEC 2021-N06
C/2020 K2 (PANSTARRS),h,08/04.2810/2020,90.9875,288.4349,67.3071,1.000824,8.880281,2000,10.8,4.0
# From MPEC 2020-KF9
C/2020 K3 (Leonard),p,06/01.0032/2020,129.0152,64.4924,1.583069,28.3546,2000,14.5,4.0
# From MPEC 2020-L06
C/2020 K4 (PANSTARRS),e,125.5849,264.2749,308.7770,23.92060,0.0084245,0.92711638,16.7309,08/12.0/2025,2000,g 16.5,4.0
# From MPEC 2021-R75
C/2020 K5 (PANSTARRS),h,06/04.1609/2021,67.0678,86.1412,249.6430,1.000779,1.540937,2000,11.0,4.0
# From MPEC 2023-N01
C/2020 K6 (Rankin),h,09/14.6447/2021,103.6294,291.6007,44.2737,1.002020,5.865926,2000,8.0,4.0
# From MPEC 2023-A50
C/2020 K7 (PANSTARRS),e,32.0443,286.1340,358.0704,94.48588,0.0010731,0.93239495,2.2727,08/12.0/2025,2000,g  8.0,4.0
# From MPEC 2021-P47
C/2020 K8 (Catalina-ATLAS),h,09/15.7448/2020,31.3761,181.2840,260.1789,1.000324,0.471606,2000,15.0,3.2
# From MPEC 2021-BE3
P/2020 K9 (Lemmon-PANSTARRS),e,23.1895,166.3102,197.0892,4.207506,0.1142002,0.32008323,187.6258,08/12.0/2025,2000,g 12.5,4.0
# From MPEC 2023-C45
P/2020 M1 (PANSTARRS),e,8.5346,142.6167,72.4841,5.311556,0.0805140,0.47358737,165.7610,08/12.0/2025,2000,g 14.5,4.0
# From MPEC 2022-H30
C/2020 M3 (ATLAS),e,23.4699,71.1784,328.6740,27.31030,0.0069058,0.95329188,12.0941,08/12.0/2025,2000,g 14.5,4.0
# From MPEC 2023-N01
A/2020 M4,e,160.1012,348.6132,104.4718,16779,0.0000005,0.99964597,0.0000,11/22.6792/2020,2000,g 14.5,2.0
# From MPEC 2024-NE4
P/2020 MK4 (PANSTARRS),e,6.7812,0.6622,93.6820,6.224643,0.0634647,0.01521868,320.8882,08/12.0/2025,2000,g  8.0,4.0
# From MPEC 2023-FK0
C/2020 M5 (ATLAS),h,08/19.7354/2021,93.1713,352.0141,126.2442,1.000106,2.999878,2000,9.0,4.0
# From MPEC 2022-GA9
C/2020 N1 (PANSTARRS),h,03/13.1866/2021,29.7675,279.8550,186.8405,1.000883,1.317702,2000,12.5,4.0
# From MPEC 2021-P47
C/2020 N2 (ATLAS),e,161.0388,257.1786,331.1936,101.2025,0.0009681,0.98237804,0.0000,08/24.3111/2020,2000,g 16.0,3.2
# From MPEC 2024-JU4
C/2020 O2 (Amaral),e,71.7624,256.7909,10.1666,10065,0.0000010,0.99951751,0.0000,08/27.2103/2021,2000,g  8.0,3.2
# From MPEC 2023-C45
